[
  {
    "OBJECT_NAME": "STARLINK-34334",
    "OBJECT_ID": "25120T",
    "EPOCH": "2025-11-11T07:03:31.044384",
    "MEAN_MOTION": 15.30208087,
    "ECCENTRICITY": 0.0001293,
    "INCLINATION": 53.1592,
    "RA_OF_ASC_NODE": 306.319,
    "ARG_OF_PERICENTER": 90.7634,
    "MEAN_ANOMALY": 269.3515,
    "EPHEMERIS_TYPE": 0,
    "CLASSIFICATION_TYPE": "U",
    "NORAD_CAT_ID": 64273,
    "ELEMENT_SET_NO": 999,
    "REV_AT_EPOCH": 2579,
    "BSTAR": 0.00048787000000000006,
    "MEAN_MOTION_DOT": 0.00014121,
    "MEAN_MOTION_DDOT": 0.0,
    "TLE_LINE1": "1 64273U 25120T   25315.29410931  .00014121  00000+0  48787-3 0  9992",
    "TLE_LINE2": "2 64273  53.1592 306.3190 0001293  90.7634 269.3515 15.30208087 25793",
    "COMMENT": "Grouped by shell and plane from TLE"
  },
  {
    "OBJECT_NAME": "STARLINK-34272",
    "OBJECT_ID": "25120U",
    "EPOCH": "2025-11-11T06:45:26.662176",
    "MEAN_MOTION": 15.30202874,
    "ECCENTRICITY": 0.0001214,
    "INCLINATION": 53.1578,
    "RA_OF_ASC_NODE": 306.9505,
    "ARG_OF_PERICENTER": 99.782,
    "MEAN_ANOMALY": 260.3318,
    "EPHEMERIS_TYPE": 0,
    "CLASSIFICATION_TYPE": "U",
    "NORAD_CAT_ID": 64274,
    "ELEMENT_SET_NO": 999,
    "REV_AT_EPOCH": 2568,
    "BSTAR": 0.0012047,
    "MEAN_MOTION_DOT": 0.00035495,
    "MEAN_MOTION_DDOT": 0.0,
    "TLE_LINE1": "1 64274U 25120U   25315.28155859  .00035495  00000+0  12047-2 0  9993",
    "TLE_LINE2": "2 64274  53.1578 306.9505 0001214  99.7820 260.3318 15.30202874 25681",
    "COMMENT": "Grouped by shell and plane from TLE"
  },
  {
    "OBJECT_NAME": "STARLINK-34293",
    "OBJECT_ID": "25120V",
    "EPOCH": "2025-11-11T05:15:56.373408",
    "MEAN_MOTION": 15.30218777,
    "ECCENTRICITY": 0.000383,
    "INCLINATION": 53.1603,
    "RA_OF_ASC_NODE": 307.2699,
    "ARG_OF_PERICENTER": 150.6535,
    "MEAN_ANOMALY": 209.4681,
    "EPHEMERIS_TYPE": 0,
    "CLASSIFICATION_TYPE": "U",
    "NORAD_CAT_ID": 64275,
    "ELEMENT_SET_NO": 999,
    "REV_AT_EPOCH": 2571,
    "BSTAR": 0.00089178,
    "MEAN_MOTION_DOT": 0.00026164,
    "MEAN_MOTION_DDOT": 0.0,
    "TLE_LINE1": "1 64275U 25120V   25315.21940247  .00026164  00000+0  89178-3 0  9993",
    "TLE_LINE2": "2 64275  53.1603 307.2699 0003830 150.6535 209.4681 15.30218777 25715",
    "COMMENT": "Grouped by shell and plane from TLE"
  },
  {
    "OBJECT_NAME": "STARLINK-34350",
    "OBJECT_ID": "25120W",
    "EPOCH": "2025-11-11T05:49:13.025568",
    "MEAN_MOTION": 15.3022764,
    "ECCENTRICITY": 0.0001296,
    "INCLINATION": 53.1611,
    "RA_OF_ASC_NODE": 306.7049,
    "ARG_OF_PERICENTER": 75.6045,
    "MEAN_ANOMALY": 284.5099,
    "EPHEMERIS_TYPE": 0,
    "CLASSIFICATION_TYPE": "U",
    "NORAD_CAT_ID": 64276,
    "ELEMENT_SET_NO": 999,
    "REV_AT_EPOCH": 2578,
    "BSTAR": 0.0012085,
    "MEAN_MOTION_DOT": 0.00035636,
    "MEAN_MOTION_DDOT": 0.0,
    "TLE_LINE1": "1 64276U 25120W   25315.24251187  .00035636  00000+0  12085-2 0  9991",
    "TLE_LINE2": "2 64276  53.1611 306.7049 0001296  75.6045 284.5099 15.30227640 25787",
    "COMMENT": "Grouped by shell and plane from TLE"
  },
  {
    "OBJECT_NAME": "STARLINK-34264",
    "OBJECT_ID": "25120X",
    "EPOCH": "2025-11-11T06:27:12.486528",
    "MEAN_MOTION": 15.3020396,
    "ECCENTRICITY": 0.0001157,
    "INCLINATION": 53.1584,
    "RA_OF_ASC_NODE": 306.8688,
    "ARG_OF_PERICENTER": 95.3504,
    "MEAN_ANOMALY": 264.7629,
    "EPHEMERIS_TYPE": 0,
    "CLASSIFICATION_TYPE": "U",
    "NORAD_CAT_ID": 64277,
    "ELEMENT_SET_NO": 999,
    "REV_AT_EPOCH": 2572,
    "BSTAR": 0.0011775,
    "MEAN_MOTION_DOT": 0.00034682,
    "MEAN_MOTION_DDOT": 0.0,
    "TLE_LINE1": "1 64277U 25120X   25315.26889452  .00034682  00000+0  11775-2 0  9991",
    "TLE_LINE2": "2 64277  53.1584 306.8688 0001157  95.3504 264.7629 15.30203960 25724",
    "COMMENT": "Grouped by shell and plane from TLE"
  },
  {
    "OBJECT_NAME": "STARLINK-34353",
    "OBJECT_ID": "25120Y",
    "EPOCH": "2025-11-11T06:40:53.133600",
    "MEAN_MOTION": 15.3020081,
    "ECCENTRICITY": 0.0001385,
    "INCLINATION": 53.1579,
    "RA_OF_ASC_NODE": 306.9294,
    "ARG_OF_PERICENTER": 95.5872,
    "MEAN_ANOMALY": 264.5286,
    "EPHEMERIS_TYPE": 0,
    "CLASSIFICATION_TYPE": "U",
    "NORAD_CAT_ID": 64278,
    "ELEMENT_SET_NO": 999,
    "REV_AT_EPOCH": 2578,
    "BSTAR": 0.0013718,
    "MEAN_MOTION_DOT": 0.00040491,
    "MEAN_MOTION_DDOT": 0.0,
    "TLE_LINE1": "1 64278U 25120Y   25315.27839275  .00040491  00000+0  13718-2 0  9995",
    "TLE_LINE2": "2 64278  53.1579 306.9294 0001385  95.5872 264.5286 15.30200810 25780",
    "COMMENT": "Grouped by shell and plane from TLE"
  },
  {
    "OBJECT_NAME": "STARLINK-34377",
    "OBJECT_ID": "25120Z",
    "EPOCH": "2025-11-11T05:56:49.303968",
    "MEAN_MOTION": 15.30226837,
    "ECCENTRICITY": 0.0001225,
    "INCLINATION": 53.16,
    "RA_OF_ASC_NODE": 306.7332,
    "ARG_OF_PERICENTER": 95.6504,
    "MEAN_ANOMALY": 264.4637,
    "EPHEMERIS_TYPE": 0,
    "CLASSIFICATION_TYPE": "U",
    "NORAD_CAT_ID": 64279,
    "ELEMENT_SET_NO": 999,
    "REV_AT_EPOCH": 2578,
    "BSTAR": 0.0012946,
    "MEAN_MOTION_DOT": 0.00038214,
    "MEAN_MOTION_DDOT": 0.0,
    "TLE_LINE1": "1 64279U 25120Z   25315.24779287  .00038214  00000+0  12946-2 0  9991",
    "TLE_LINE2": "2 64279  53.1600 306.7332 0001225  95.6504 264.4637 15.30226837 25789",
    "COMMENT": "Grouped by shell and plane from TLE"
  },
  {
    "OBJECT_NAME": "STARLINK-34359",
    "OBJECT_ID": "25120AA",
    "EPOCH": "2025-11-11T06:34:48.465984",
    "MEAN_MOTION": 15.30199704,
    "ECCENTRICITY": 0.0001235,
    "INCLINATION": 53.1587,
    "RA_OF_ASC_NODE": 306.8979,
    "ARG_OF_PERICENTER": 99.9934,
    "MEAN_ANOMALY": 260.1206,
    "EPHEMERIS_TYPE": 0,
    "CLASSIFICATION_TYPE": "U",
    "NORAD_CAT_ID": 64280,
    "ELEMENT_SET_NO": 999,
    "REV_AT_EPOCH": 2578,
    "BSTAR": 0.0010547,
    "MEAN_MOTION_DOT": 0.00031008,
    "MEAN_MOTION_DDOT": 0.0,
    "TLE_LINE1": "1 64280U 25120AA  25315.27417206  .00031008  00000+0  10547-2 0  9995",
    "TLE_LINE2": "2 64280  53.1587 306.8979 0001235  99.9934 260.1206 15.30199704 25785",
    "COMMENT": "Grouped by shell and plane from TLE"
  },
  {
    "OBJECT_NAME": "STARLINK-34366",
    "OBJECT_ID": "25120AB",
    "EPOCH": "2025-11-11T06:11:59.530560",
    "MEAN_MOTION": 15.30170487,
    "ECCENTRICITY": 0.0001165,
    "INCLINATION": 53.1605,
    "RA_OF_ASC_NODE": 306.8005,
    "ARG_OF_PERICENTER": 77.6446,
    "MEAN_ANOMALY": 282.4685,
    "EPHEMERIS_TYPE": 0,
    "CLASSIFICATION_TYPE": "U",
    "NORAD_CAT_ID": 64281,
    "ELEMENT_SET_NO": 999,
    "REV_AT_EPOCH": 2573,
    "BSTAR": 0.0005410899999999999,
    "MEAN_MOTION_DOT": 0.00015686,
    "MEAN_MOTION_DDOT": 0.0,
    "TLE_LINE1": "1 64281U 25120AB  25315.25832790  .00015686  00000+0  54109-3 0  9990",
    "TLE_LINE2": "2 64281  53.1605 306.8005 0001165  77.6446 282.4685 15.30170487 25730",
    "COMMENT": "Grouped by shell and plane from TLE"
  },
  {
    "OBJECT_NAME": "STARLINK-34381",
    "OBJECT_ID": "25120AC",
    "EPOCH": "2025-11-11T06:24:10.166112",
    "MEAN_MOTION": 15.3019568,
    "ECCENTRICITY": 0.0001425,
    "INCLINATION": 53.1586,
    "RA_OF_ASC_NODE": 306.8542,
    "ARG_OF_PERICENTER": 94.419,
    "MEAN_ANOMALY": 265.6974,
    "EPHEMERIS_TYPE": 0,
    "CLASSIFICATION_TYPE": "U",
    "NORAD_CAT_ID": 64282,
    "ELEMENT_SET_NO": 999,
    "REV_AT_EPOCH": 2576,
    "BSTAR": 0.0015398999999999999,
    "MEAN_MOTION_DOT": 0.00045521,
    "MEAN_MOTION_DDOT": 0.0,
    "TLE_LINE1": "1 64282U 25120AC  25315.26678433  .00045521  00000+0  15399-2 0  9992",
    "TLE_LINE2": "2 64282  53.1586 306.8542 0001425  94.4190 265.6974 15.30195680 25766",
    "COMMENT": "Grouped by shell and plane from TLE"
  },
  {
    "OBJECT_NAME": "STARLINK-34493",
    "OBJECT_ID": "25133A",
    "EPOCH": "2025-11-11T06:09:29.844288",
    "MEAN_MOTION": 15.39628098,
    "ECCENTRICITY": 0.00011,
    "INCLINATION": 53.161,
    "RA_OF_ASC_NODE": 307.7728,
    "ARG_OF_PERICENTER": 85.3583,
    "MEAN_ANOMALY": 274.7548,
    "EPHEMERIS_TYPE": 0,
    "CLASSIFICATION_TYPE": "U",
    "NORAD_CAT_ID": 64472,
    "ELEMENT_SET_NO": 999,
    "REV_AT_EPOCH": 2304,
    "BSTAR": 0.0016346,
    "MEAN_MOTION_DOT": 0.00065565,
    "MEAN_MOTION_DDOT": 0.0,
    "TLE_LINE1": "1 64472U 25133A   25315.25659542  .00065565  00000+0  16346-2 0  9999",
    "TLE_LINE2": "2 64472  53.1610 307.7728 0001100  85.3583 274.7548 15.39628098 23046",
    "COMMENT": "Grouped by shell and plane from TLE"
  },
  {
    "OBJECT_NAME": "STARLINK-34492",
    "OBJECT_ID": "25133B",
    "EPOCH": "2025-11-11T06:03:17.820576",
    "MEAN_MOTION": 15.39627179,
    "ECCENTRICITY": 0.0001354,
    "INCLINATION": 53.1615,
    "RA_OF_ASC_NODE": 307.7459,
    "ARG_OF_PERICENTER": 89.0925,
    "MEAN_ANOMALY": 271.0235,
    "EPHEMERIS_TYPE": 0,
    "CLASSIFICATION_TYPE": "U",
    "NORAD_CAT_ID": 64473,
    "ELEMENT_SET_NO": 999,
    "REV_AT_EPOCH": 2304,
    "BSTAR": 0.0014335,
    "MEAN_MOTION_DOT": 0.00057386,
    "MEAN_MOTION_DDOT": 0.0,
    "TLE_LINE1": "1 64473U 25133B   25315.25228959  .00057386  00000+0  14335-2 0  9992",
    "TLE_LINE2": "2 64473  53.1615 307.7459 0001354  89.0925 271.0235 15.39627179 23047",
    "COMMENT": "Grouped by shell and plane from TLE"
  },
  {
    "OBJECT_NAME": "STARLINK-34474",
    "OBJECT_ID": "25133C",
    "EPOCH": "2025-11-11T06:02:48.758208",
    "MEAN_MOTION": 15.39620244,
    "ECCENTRICITY": 0.0001265,
    "INCLINATION": 53.1612,
    "RA_OF_ASC_NODE": 307.744,
    "ARG_OF_PERICENTER": 103.7453,
    "MEAN_ANOMALY": 256.3693,
    "EPHEMERIS_TYPE": 0,
    "CLASSIFICATION_TYPE": "U",
    "NORAD_CAT_ID": 64474,
    "ELEMENT_SET_NO": 999,
    "REV_AT_EPOCH": 2302,
    "BSTAR": 0.0015017,
    "MEAN_MOTION_DOT": 0.00060143,
    "MEAN_MOTION_DDOT": 0.0,
    "TLE_LINE1": "1 64474U 25133C   25315.25195322  .00060143  00000+0  15017-2 0  9993",
    "TLE_LINE2": "2 64474  53.1612 307.7440 0001265 103.7453 256.3693 15.39620244 23024",
    "COMMENT": "Grouped by shell and plane from TLE"
  }
]